[{"OBJECT_NAME":"STARLINK-30135","OBJECT_ID":"2023-079V","EPOCH":"2025-11-23T23:58:53.061600","MEAN_MOTION":15.02535256,"ECCENTRICITY":0.0001144,"INCLINATION":43.0051,"RA_OF_ASC_NODE":321.7545,"ARG_OF_PERICENTER":268.39,"MEAN_ANOMALY":91.6811,"EPHEMERIS_TYPE":0,"CLASSIFICATION_TYPE":"U","NORAD_CAT_ID":56842,"ELEMENT_SET_NO":999,"REV_AT_EPOCH":13698,"BSTAR":7.6053e-5,"MEAN_MOTION_DOT":8.24e-6,"MEAN_MOTION_DDOT":0},{"OBJECT_NAME":"STARLINK-30137","OBJECT_ID":"2023-079W","EPOCH":"2025-11-23T09:18:08.323776","MEAN_MOTION":15.02541841,"ECCENTRICITY":4.12e-5,"INCLINATION":43.002,"RA_OF_ASC_NODE":324.9057,"ARG_OF_PERICENTER":256.8924,"MEAN_ANOMALY":103.1873,"EPHEMERIS_TYPE":0,"CLASSIFICATION_TYPE":"U","NORAD_CAT_ID":56843,"ELEMENT_SET_NO":999,"REV_AT_EPOCH":13689,"BSTAR":7.0814e-5,"MEAN_MOTION_DOT":7.53e-6,"MEAN_MOTION_DDOT":0},{"OBJECT_NAME":"STARLINK-30136","OBJECT_ID":"2023-079X","EPOCH":"2025-11-23T09:56:31.567200","MEAN_MOTION":15.0250332,"ECCENTRICITY":7.27e-5,"INCLINATION":43.0024,"RA_OF_ASC_NODE":325.0919,"ARG_OF_PERICENTER":313.6656,"MEAN_ANOMALY":46.4126,"EPHEMERIS_TYPE":0,"CLASSIFICATION_TYPE":"U","NORAD_CAT_ID":56844,"ELEMENT_SET_NO":999,"REV_AT_EPOCH":13689,"BSTAR":0.00043264,"MEAN_MOTION_DOT":5.64e-5,"MEAN_MOTION_DDOT":0},{"OBJECT_NAME":"STARLINK-6206","OBJECT_ID":"2023-083A","EPOCH":"2025-11-23T23:24:38.469600","MEAN_MOTION":15.02550172,"ECCENTRICITY":0.0001309,"INCLINATION":43.0045,"RA_OF_ASC_NODE":296.6002,"ARG_OF_PERICENTER":277.5539,"MEAN_ANOMALY":82.5155,"EPHEMERIS_TYPE":0,"CLASSIFICATION_TYPE":"U","NORAD_CAT_ID":56876,"ELEMENT_SET_NO":999,"REV_AT_EPOCH":13576,"BSTAR":0.00014538,"MEAN_MOTION_DOT":1.761e-5,"MEAN_MOTION_DDOT":0},{"OBJECT_NAME":"STARLINK-6209","OBJECT_ID":"2023-083B","EPOCH":"2025-11-23T07:16:12.059040","MEAN_MOTION":15.02533923,"ECCENTRICITY":0.000135,"INCLINATION":43.0048,"RA_OF_ASC_NODE":300.1526,"ARG_OF_PERICENTER":268.9786,"MEAN_ANOMALY":91.0902,"EPHEMERIS_TYPE":0,"CLASSIFICATION_TYPE":"U","NORAD_CAT_ID":56877,"ELEMENT_SET_NO":999,"REV_AT_EPOCH":13566,"BSTAR":7.7357e-6,"MEAN_MOTION_DOT":-9.9e-7,"MEAN_MOTION_DDOT":0},{"OBJECT_NAME":"STARLINK-6182","OBJECT_ID":"2023-083C","EPOCH":"2025-11-23T23:23:03.763104","MEAN_MOTION":15.02538414,"ECCENTRICITY":0.0001292,"INCLINATION":43.0054,"RA_OF_ASC_NODE":296.5907,"ARG_OF_PERICENTER":270.6198,"MEAN_ANOMALY":89.4497,"EPHEMERIS_TYPE":0,"CLASSIFICATION_TYPE":"U","NORAD_CAT_ID":56878,"ELEMENT_SET_NO":999,"REV_AT_EPOCH":13576,"BSTAR":3.5717e-5,"MEAN_MOTION_DOT":2.79e-6,"MEAN_MOTION_DDOT":0},{"OBJECT_NAME":"STARLINK-5707","OBJECT_ID":"2023-083D","EPOCH":"2025-11-23T07:20:59.722656","MEAN_MOTION":15.02533314,"ECCENTRICITY":0.0001412,"INCLINATION":43.007,"RA_OF_ASC_NODE":300.1799,"ARG_OF_PERICENTER":267.8631,"MEAN_ANOMALY":92.205,"EPHEMERIS_TYPE":0,"CLASSIFICATION_TYPE":"U","NORAD_CAT_ID":56879,"ELEMENT_SET_NO":999,"REV_AT_EPOCH":13566,"BSTAR":5.95e-6,"MEAN_MOTION_DOT":-1.23e-6,"MEAN_MOTION_DDOT":0},{"OBJECT_NAME":"STARLINK-6177","OBJECT_ID":"2023-083E","EPOCH":"2025-11-23T22:54:17.981856","MEAN_MOTION":15.02536103,"ECCENTRICITY":0.0001367,"INCLINATION":43.0044,"RA_OF_ASC_NODE":296.441,"ARG_OF_PERICENTER":305.0505,"MEAN_ANOMALY":55.0209,"EPHEMERIS_TYPE":0,"CLASSIFICATION_TYPE":"U","NORAD_CAT_ID":56880,"ELEMENT_SET_NO":999,"REV_AT_EPOCH":13576,"BSTAR":7.1839e-5,"MEAN_MOTION_DOT":7.67e-6,"MEAN_MOTION_DDOT":0},{"OBJECT_NAME":"STARLINK-5853","OBJECT_ID":"2023-083F","EPOCH":"2025-11-23T23:15:04.727808","MEAN_MOTION":15.02530623,"ECCENTRICITY":0.0001274,"INCLINATION":43.0048,"RA_OF_ASC_NODE":296.5484,"ARG_OF_PERICENTER":269.6191,"MEAN_ANOMALY":90.4505,"EPHEMERIS_TYPE":0,"CLASSIFICATION_TYPE":"U","NORAD_CAT_ID":56881,"ELEMENT_SET_NO":999,"REV_AT_EPOCH":13576,"BSTAR":1.3665e-5,"MEAN_MOTION_DOT":-1.9e-7,"MEAN_MOTION_DDOT":0},{"OBJECT_NAME":"STARLINK-6175","OBJECT_ID":"2023-083G","EPOCH":"2025-11-23T22:55:54.069024","MEAN_MOTION":15.02539246,"ECCENTRICITY":0.0001761,"INCLINATION":43.0061,"RA_OF_ASC_NODE":296.443,"ARG_OF_PERICENTER":262.8376,"MEAN_ANOMALY":97.2267,"EPHEMERIS_TYPE":0,"CLASSIFICATION_TYPE":"U","NORAD_CAT_ID":56882,"ELEMENT_SET_NO":999,"REV_AT_EPOCH":13576,"BSTAR":1.3379e-5,"MEAN_MOTION_DOT":-2.3e-7,"MEAN_MOTION_DDOT":0},{"OBJECT_NAME":"STARLINK-6171","OBJECT_ID":"2023-083H","EPOCH":"2025-11-23T23:10:16.817088","MEAN_MOTION":15.02536311,"ECCENTRICITY":0.0001376,"INCLINATION":43.0044,"RA_OF_ASC_NODE":296.5195,"ARG_OF_PERICENTER":270.442,"MEAN_ANOMALY":89.6264,"EPHEMERIS_TYPE":0,"CLASSIFICATION_TYPE":"U","NORAD_CAT_ID":56883,"ELEMENT_SET_NO":999,"REV_AT_EPOCH":13576,"BSTAR":2.8277e-5,"MEAN_MOTION_DOT":1.78e-6,"MEAN_MOTION_DDOT":0},{"OBJECT_NAME":"STARLINK-5515","OBJECT_ID":"2023-083J","EPOCH":"2025-11-23T22:46:18.465312","MEAN_MOTION":15.02534994,"ECCENTRICITY":0.0001508,"INCLINATION":43.0063,"RA_OF_ASC_NODE":296.3941,"ARG_OF_PERICENTER":272.098,"MEAN_ANOMALY":87.9689,"EPHEMERIS_TYPE":0,"CLASSIFICATION_TYPE":"U","NORAD_CAT_ID":56884,"ELEMENT_SET_NO":999,"REV_AT_EPOCH":13576,"BSTAR":3.8503e-6,"MEAN_MOTION_DOT":-1.52e-6,"MEAN_MOTION_DDOT":0},{"OBJECT_NAME":"STARLINK-5095","OBJECT_ID":"2023-083K","EPOCH":"2025-11-23T23:05:28.869216","MEAN_MOTION":15.02534107,"ECCENTRICITY":5.26e-5,"INCLINATION":43.0017,"RA_OF_ASC_NODE":296.4932,"ARG_OF_PERICENTER":241.5932,"MEAN_ANOMALY":118.4858,"EPHEMERIS_TYPE":0,"CLASSIFICATION_TYPE":"U","NORAD_CAT_ID":56885,"ELEMENT_SET_NO":999,"REV_AT_EPOCH":13576,"BSTAR":9.7746e-5,"MEAN_MOTION_DOT":1.117e-5,"MEAN_MOTION_DDOT":0},{"OBJECT_NAME":"STARLINK-5496","OBJECT_ID":"2023-083L","EPOCH":"2025-11-23T08:23:09.613248","MEAN_MOTION":15.0253295,"ECCENTRICITY":0.0001122,"INCLINATION":43.0049,"RA_OF_ASC_NODE":299.639,"ARG_OF_PERICENTER":261.6436,"MEAN_ANOMALY":98.4279,"EPHEMERIS_TYPE":0,"CLASSIFICATION_TYPE":"U","NORAD_CAT_ID":56886,"ELEMENT_SET_NO":999,"REV_AT_EPOCH":13567,"BSTAR":2.8869e-5,"MEAN_MOTION_DOT":1.86e-6,"MEAN_MOTION_DDOT":0},{"OBJECT_NAME":"STARLINK-6180","OBJECT_ID":"2023-083M","EPOCH":"2025-11-23T08:29:33.110016","MEAN_MOTION":15.02549671,"ECCENTRICITY":0.0001707,"INCLINATION":43.0052,"RA_OF_ASC_NODE":299.6693,"ARG_OF_PERICENTER":267.4073,"MEAN_ANOMALY":92.6574,"EPHEMERIS_TYPE":0,"CLASSIFICATION_TYPE":"U","NORAD_CAT_ID":56887,"ELEMENT_SET_NO":999,"REV_AT_EPOCH":13567,"BSTAR":3.0337e-5,"MEAN_MOTION_DOT":2.06e-6,"MEAN_MOTION_DDOT":0},{"OBJECT_NAME":"STARLINK-6181","OBJECT_ID":"2023-083N","EPOCH":"2025-11-23T22:25:31.937088","MEAN_MOTION":15.02535069,"ECCENTRICITY":9.57e-5,"INCLINATION":43.007,"RA_OF_ASC_NODE":296.2876,"ARG_OF_PERICENTER":263.5764,"MEAN_ANOMALY":96.4969,"EPHEMERIS_TYPE":0,"CLASSIFICATION_TYPE":"U","NORAD_CAT_ID":56888,"ELEMENT_SET_NO":999,"REV_AT_EPOCH":13576,"BSTAR":7.5934e-6,"MEAN_MOTION_DOT":-1.01e-6,"MEAN_MOTION_DDOT":0},{"OBJECT_NAME":"STARLINK-6169","OBJECT_ID":"2023-083P","EPOCH":"2025-11-23T06:42:38.062080","MEAN_MOTION":15.02533532,"ECCENTRICITY":0.0001403,"INCLINATION":43.0041,"RA_OF_ASC_NODE":299.9714,"ARG_OF_PERICENTER":265.0209,"MEAN_ANOMALY":95.0473,"EPHEMERIS_TYPE":0,"CLASSIFICATION_TYPE":"U","NORAD_CAT_ID":56889,"ELEMENT_SET_NO":999,"REV_AT_EPOCH":13566,"BSTAR":1.1453e-5,"MEAN_MOTION_DOT":-4.9e-7,"MEAN_MOTION_DDOT":0},{"OBJECT_NAME":"STARLINK-5528","OBJECT_ID":"2023-083Q","EPOCH":"2025-11-24T00:02:52.008576","MEAN_MOTION":15.02530428,"ECCENTRICITY":0.0001143,"INCLINATION":43.0042,"RA_OF_ASC_NODE":295.9332,"ARG_OF_PERICENTER":271.1895,"MEAN_ANOMALY":88.8817,"EPHEMERIS_TYPE":0,"CLASSIFICATION_TYPE":"U","NORAD_CAT_ID":56890,"ELEMENT_SET_NO":999,"REV_AT_EPOCH":13577,"BSTAR":7.3604e-5,"MEAN_MOTION_DOT":7.91e-6,"MEAN_MOTION_DDOT":0},{"OBJECT_NAME":"STARLINK-6213","OBJECT_ID":"2023-083R","EPOCH":"2025-11-23T06:37:50.686176","MEAN_MOTION":15.02530845,"ECCENTRICITY":0.000102,"INCLINATION":43.0037,"RA_OF_ASC_NODE":299.9461,"ARG_OF_PERICENTER":256.5675,"MEAN_ANOMALY":103.5054,"EPHEMERIS_TYPE":0,"CLASSIFICATION_TYPE":"U","NORAD_CAT_ID":56891,"ELEMENT_SET_NO":999,"REV_AT_EPOCH":13566,"BSTAR":-2.4009e-5,"MEAN_MOTION_DOT":-5.28e-6,"MEAN_MOTION_DDOT":0},{"OBJECT_NAME":"STARLINK-6219","OBJECT_ID":"2023-083S","EPOCH":"2025-11-23T23:51:39.989376","MEAN_MOTION":15.02540098,"ECCENTRICITY":0.0001389,"INCLINATION":43.0042,"RA_OF_ASC_NODE":295.8711,"ARG_OF_PERICENTER":269.3568,"MEAN_ANOMALY":90.7115,"EPHEMERIS_TYPE":0,"CLASSIFICATION_TYPE":"U","NORAD_CAT_ID":56892,"ELEMENT_SET_NO":999,"REV_AT_EPOCH":13577,"BSTAR":8.1786e-5,"MEAN_MOTION_DOT":9.01e-6,"MEAN_MOTION_DDOT":0},{"OBJECT_NAME":"STARLINK-6216","OBJECT_ID":"2023-083T","EPOCH":"2025-11-23T22:30:19.700064","MEAN_MOTION":15.02536659,"ECCENTRICITY":0.0001644,"INCLINATION":43.0064,"RA_OF_ASC_NODE":296.3122,"ARG_OF_PERICENTER":280.001,"MEAN_ANOMALY":80.0647,"EPHEMERIS_TYPE":0,"CLASSIFICATION_TYPE":"U","NORAD_CAT_ID":56893,"ELEMENT_SET_NO":999,"REV_AT_EPOCH":13588,"BSTAR":5.291e-5,"MEAN_MOTION_DOT":5.11e-6,"MEAN_MOTION_DDOT":0},{"OBJECT_NAME":"STARLINK-6144","OBJECT_ID":"2023-083U","EPOCH":"2025-11-23T23:53:15.698976","MEAN_MOTION":15.02539002,"ECCENTRICITY":0.0001314,"INCLINATION":43.0062,"RA_OF_ASC_NODE":295.8835,"ARG_OF_PERICENTER":263.3399,"MEAN_ANOMALY":96.7294,"EPHEMERIS_TYPE":0,"CLASSIFICATION_TYPE":"U","NORAD_CAT_ID":56894,"ELEMENT_SET_NO":999,"REV_AT_EPOCH":13589,"BSTAR":6.4623e-5,"MEAN_MOTION_DOT":6.69e-6,"MEAN_MOTION_DDOT":0},{"OBJECT_NAME":"STARLINK-6208","OBJECT_ID":"2023-083V","EPOCH":"2025-11-23T07:51:11.693952","MEAN_MOTION":15.02531256,"ECCENTRICITY":0.0001557,"INCLINATION":43.0065,"RA_OF_ASC_NODE":299.4699,"ARG_OF_PERICENTER":249.175,"MEAN_ANOMALY":110.8925,"EPHEMERIS_TYPE":0,"CLASSIFICATION_TYPE":"U","NORAD_CAT_ID":56895,"ELEMENT_SET_NO":999,"REV_AT_EPOCH":13567,"BSTAR":-1.8904e-5,"MEAN_MOTION_DOT":-4.59e-6,"MEAN_MOTION_DDOT":0},{"OBJECT_NAME":"STARLINK-6202","OBJECT_ID":"2023-083W","EPOCH":"2025-11-23T23:42:02.307744","MEAN_MOTION":15.02563273,"ECCENTRICITY":7.93e-5,"INCLINATION":43.002,"RA_OF_ASC_NODE":295.8244,"ARG_OF_PERICENTER":274.2967,"MEAN_ANOMALY":85.7784,"EPHEMERIS_TYPE":0,"CLASSIFICATION_TYPE":"U","NORAD_CAT_ID":56896,"ELEMENT_SET_NO":999,"REV_AT_EPOCH":13588,"BSTAR":0.00027681,"MEAN_MOTION_DOT":3.54e-5,"MEAN_MOTION_DDOT":0}]
